[{"OBJECT_NAME":"STARLINK-32514","OBJECT_ID":"2024-210G","EPOCH":"2026-03-09T07:29:58.189920","MEAN_MOTION":15.27598956,"ECCENTRICITY":8.754e-5,"INCLINATION":42.9967,"RA_OF_ASC_NODE":174.914,"ARG_OF_PERICENTER":294.8592,"MEAN_ANOMALY":65.2168,"EPHEMERIS_TYPE":0,"CLASSIFICATION_TYPE":"U","NORAD_CAT_ID":61965,"ELEMENT_SET_NO":999,"REV_AT_EPOCH":7493,"BSTAR":0.0011939396,"MEAN_MOTION_DOT":0.00032758,"MEAN_MOTION_DDOT":0},{"OBJECT_NAME":"BLUEBON","OBJECT_ID":"2025-009CH","EPOCH":"2026-03-09T16:52:33.225312","MEAN_MOTION":15.29047254,"ECCENTRICITY":0.00011933,"INCLINATION":97.4017,"RA_OF_ASC_NODE":152.2033,"ARG_OF_PERICENTER":43.39,"MEAN_ANOMALY":316.7434,"EPHEMERIS_TYPE":0,"CLASSIFICATION_TYPE":"U","NORAD_CAT_ID":62688,"ELEMENT_SET_NO":999,"REV_AT_EPOCH":6376,"BSTAR":0.00037313027,"MEAN_MOTION_DOT":0.00010452,"MEAN_MOTION_DDOT":0}]
